ATLAS 5 CENTAUR R/B     
1 66455U 25261B   25343.20183727 -.00000080  00000+0  00000+0 0  9996
2 66455   6.1502 291.9704 2329521 185.7729 117.5169  2.28259592   562
STARLINK-35643          
1 66456U 25262A   25343.50002315 -.00125601  00000+0 -30445-2 0  9991
2 66456  43.0001  90.2793 0001400 287.6149 233.0836 15.40745850  5110
STARLINK-35466          
1 66457U 25262B   25343.50002315  .00038471  00000+0  92492-3 0  9999
2 66457  42.9999  90.2176 0001061 286.8953 258.6960 15.40656013  5110
STARLINK-35684          
1 66458U 25262C   25343.50002315  .00038813  00000+0  93261-3 0  9995
2 66458  43.0001  90.2489 0001379 262.6777 270.4409 15.40670066  5116
STARLINK-35449          
1 66459U 25262D   25343.50002315  .00039463  00000+0  94844-3 0  9996
2 66459  43.0000  90.1874 0001288 282.4127 275.6158 15.40656878  5114
STARLINK-35424          
1 66460U 25262E   25343.50002315  .00044343  00000+0  10645-2 0  9997
2 66460  43.0000  90.1578 0001541 273.8877 296.5977 15.40647169  5119
STARLINK-35132          
1 66461U 25262F   25343.50002315 -.01410142  00000+0 -35945-1 0  9994
2 66461  42.9999  90.1295 0001499 291.2654 291.1027 15.41672130  5114
STARLINK-35499          
1 66462U 25262G   25343.50002315 -.01973833  00000+0 -48681-1 0  9997
2 66462  42.9998  90.1029 0000890 286.5095 306.2719 15.43205965  5115
STARLINK-35463          
1 66463U 25262H   25343.50002315 -.02062708  00000+0 -46626-1 0  9996
2 66463  43.0002  90.0621 0000858 279.9354 329.4948 15.45895680  5111
STARLINK-35435          
1 66464U 25262J   25343.50002315 -.02064214  00000+0 -48860-1 0  9993
2 66464  43.0003  90.0809 0001118 277.6243 324.1877 15.44564354  5116
STARLINK-35448          
1 66465U 25262K   25343.45339808 -.00353265  00000+0 -65675-2 0  9997
2 66465  43.0002  90.3041 0001467 252.1747 107.8953 15.49371995  5057
STARLINK-35388          
1 66466U 25262L   25343.45282517 -.00023472  00000+0 -39677-3 0  9990
2 66466  42.9996  90.2991 0001412 244.8789 115.1925 15.50487922  5056
