CCSDS_OMM_VERS = 2.0
CREATION_DATE  = 
ORIGINATOR     = 

OBJECT_NAME    = ATLAS 5 CENTAUR R/B
OBJECT_ID      = 2025-261B
CENTER_NAME    = EARTH
REF_FRAME      = TEME
TIME_SYSTEM    = UTC
MEAN_ELEMENT_THEORY = SGP/SGP4

EPOCH          = 2025-12-09T04:50:38.740128
MEAN_MOTION    = 2.28259592
ECCENTRICITY   = .23295213
INCLINATION    = 6.1502
RA_OF_ASC_NODE = 291.9704
ARG_OF_PERICENTER = 185.7729
MEAN_ANOMALY   = 117.5169

EPHEMERIS_TYPE = 0
CLASSIFICATION_TYPE = U
NORAD_CAT_ID   = 66455
ELEMENT_SET_NO = 999
REV_AT_EPOCH   = 56
BSTAR          = 0
MEAN_MOTION_DOT = -.8E-6
MEAN_MOTION_DDOT = 0

CCSDS_OMM_VERS = 2.0
CREATION_DATE  = 
ORIGINATOR     = 

OBJECT_NAME    = STARLINK-35643
OBJECT_ID      = 2025-262A
CENTER_NAME    = EARTH
REF_FRAME      = TEME
TIME_SYSTEM    = UTC
MEAN_ELEMENT_THEORY = SGP/SGP4

EPOCH          = 2025-12-09T12:00:02.000160
MEAN_MOTION    = 15.40745850
ECCENTRICITY   = .00014
INCLINATION    = 43.0001
RA_OF_ASC_NODE = 90.2793
ARG_OF_PERICENTER = 287.6149
MEAN_ANOMALY   = 233.0836

EPHEMERIS_TYPE = 0
CLASSIFICATION_TYPE = U
NORAD_CAT_ID   = 66456
ELEMENT_SET_NO = 999
REV_AT_EPOCH   = 511
BSTAR          = -.30445E-2
MEAN_MOTION_DOT = -.125601E-2
MEAN_MOTION_DDOT = 0

CCSDS_OMM_VERS = 2.0
CREATION_DATE  = 
ORIGINATOR     = 

OBJECT_NAME    = STARLINK-35466
OBJECT_ID      = 2025-262B
CENTER_NAME    = EARTH
REF_FRAME      = TEME
TIME_SYSTEM    = UTC
MEAN_ELEMENT_THEORY = SGP/SGP4

EPOCH          = 2025-12-09T12:00:02.000160
MEAN_MOTION    = 15.40656013
ECCENTRICITY   = .0001061
INCLINATION    = 42.9999
RA_OF_ASC_NODE = 90.2176
ARG_OF_PERICENTER = 286.8953
MEAN_ANOMALY   = 258.6960

EPHEMERIS_TYPE = 0
CLASSIFICATION_TYPE = U
NORAD_CAT_ID   = 66457
ELEMENT_SET_NO = 999
REV_AT_EPOCH   = 511
BSTAR          = .92492E-3
MEAN_MOTION_DOT = .38471E-3
MEAN_MOTION_DDOT = 0

CCSDS_OMM_VERS = 2.0
CREATION_DATE  = 
ORIGINATOR     = 

OBJECT_NAME    = STARLINK-35684
OBJECT_ID      = 2025-262C
CENTER_NAME    = EARTH
REF_FRAME      = TEME
TIME_SYSTEM    = UTC
MEAN_ELEMENT_THEORY = SGP/SGP4

EPOCH          = 2025-12-09T12:00:02.000160
MEAN_MOTION    = 15.40670066
ECCENTRICITY   = .0001379
INCLINATION    = 43.0001
RA_OF_ASC_NODE = 90.2489
ARG_OF_PERICENTER = 262.6777
MEAN_ANOMALY   = 270.4409

EPHEMERIS_TYPE = 0
CLASSIFICATION_TYPE = U
NORAD_CAT_ID   = 66458
ELEMENT_SET_NO = 999
REV_AT_EPOCH   = 511
BSTAR          = .93261E-3
MEAN_MOTION_DOT = .38813E-3
MEAN_MOTION_DDOT = 0

CCSDS_OMM_VERS = 2.0
CREATION_DATE  = 
ORIGINATOR     = 

OBJECT_NAME    = STARLINK-35449
OBJECT_ID      = 2025-262D
CENTER_NAME    = EARTH
REF_FRAME      = TEME
TIME_SYSTEM    = UTC
MEAN_ELEMENT_THEORY = SGP/SGP4

EPOCH          = 2025-12-09T12:00:02.000160
MEAN_MOTION    = 15.40656878
ECCENTRICITY   = .0001288
INCLINATION    = 43.0000
RA_OF_ASC_NODE = 90.1874
ARG_OF_PERICENTER = 282.4127
MEAN_ANOMALY   = 275.6158

EPHEMERIS_TYPE = 0
CLASSIFICATION_TYPE = U
NORAD_CAT_ID   = 66459
ELEMENT_SET_NO = 999
REV_AT_EPOCH   = 511
BSTAR          = .94844E-3
MEAN_MOTION_DOT = .39463E-3
MEAN_MOTION_DDOT = 0

CCSDS_OMM_VERS = 2.0
CREATION_DATE  = 
ORIGINATOR     = 

OBJECT_NAME    = STARLINK-35424
OBJECT_ID      = 2025-262E
CENTER_NAME    = EARTH
REF_FRAME      = TEME
TIME_SYSTEM    = UTC
MEAN_ELEMENT_THEORY = SGP/SGP4

EPOCH          = 2025-12-09T12:00:02.000160
MEAN_MOTION    = 15.40647169
ECCENTRICITY   = .0001541
INCLINATION    = 43.0000
RA_OF_ASC_NODE = 90.1578
ARG_OF_PERICENTER = 273.8877
MEAN_ANOMALY   = 296.5977

EPHEMERIS_TYPE = 0
CLASSIFICATION_TYPE = U
NORAD_CAT_ID   = 66460
ELEMENT_SET_NO = 999
REV_AT_EPOCH   = 511
BSTAR          = .10645E-2
MEAN_MOTION_DOT = .44343E-3
MEAN_MOTION_DDOT = 0

CCSDS_OMM_VERS = 2.0
CREATION_DATE  = 
ORIGINATOR     = 

OBJECT_NAME    = STARLINK-35132
OBJECT_ID      = 2025-262F
CENTER_NAME    = EARTH
REF_FRAME      = TEME
TIME_SYSTEM    = UTC
MEAN_ELEMENT_THEORY = SGP/SGP4

EPOCH          = 2025-12-09T12:00:02.000160
MEAN_MOTION    = 15.41672130
ECCENTRICITY   = .0001499
INCLINATION    = 42.9999
RA_OF_ASC_NODE = 90.1295
ARG_OF_PERICENTER = 291.2654
MEAN_ANOMALY   = 291.1027

EPHEMERIS_TYPE = 0
CLASSIFICATION_TYPE = U
NORAD_CAT_ID   = 66461
ELEMENT_SET_NO = 999
REV_AT_EPOCH   = 511
BSTAR          = -.35945E-1
MEAN_MOTION_DOT = -.1410142E-1
MEAN_MOTION_DDOT = 0

CCSDS_OMM_VERS = 2.0
CREATION_DATE  = 
ORIGINATOR     = 

OBJECT_NAME    = STARLINK-35499
OBJECT_ID      = 2025-262G
CENTER_NAME    = EARTH
REF_FRAME      = TEME
TIME_SYSTEM    = UTC
MEAN_ELEMENT_THEORY = SGP/SGP4

EPOCH          = 2025-12-09T12:00:02.000160
MEAN_MOTION    = 15.43205965
ECCENTRICITY   = .000089
INCLINATION    = 42.9998
RA_OF_ASC_NODE = 90.1029
ARG_OF_PERICENTER = 286.5095
MEAN_ANOMALY   = 306.2719

EPHEMERIS_TYPE = 0
CLASSIFICATION_TYPE = U
NORAD_CAT_ID   = 66462
ELEMENT_SET_NO = 999
REV_AT_EPOCH   = 511
BSTAR          = -.48681E-1
MEAN_MOTION_DOT = -.1973833E-1
MEAN_MOTION_DDOT = 0

CCSDS_OMM_VERS = 2.0
CREATION_DATE  = 
ORIGINATOR     = 

OBJECT_NAME    = STARLINK-35463
OBJECT_ID      = 2025-262H
CENTER_NAME    = EARTH
REF_FRAME      = TEME
TIME_SYSTEM    = UTC
MEAN_ELEMENT_THEORY = SGP/SGP4

EPOCH          = 2025-12-09T12:00:02.000160
MEAN_MOTION    = 15.45895680
ECCENTRICITY   = .0000858
INCLINATION    = 43.0002
RA_OF_ASC_NODE = 90.0621
ARG_OF_PERICENTER = 279.9354
MEAN_ANOMALY   = 329.4948

EPHEMERIS_TYPE = 0
CLASSIFICATION_TYPE = U
NORAD_CAT_ID   = 66463
ELEMENT_SET_NO = 999
REV_AT_EPOCH   = 511
BSTAR          = -.46626E-1
MEAN_MOTION_DOT = -.2062708E-1
MEAN_MOTION_DDOT = 0

CCSDS_OMM_VERS = 2.0
CREATION_DATE  = 
ORIGINATOR     = 

OBJECT_NAME    = STARLINK-35435
OBJECT_ID      = 2025-262J
CENTER_NAME    = EARTH
REF_FRAME      = TEME
TIME_SYSTEM    = UTC
MEAN_ELEMENT_THEORY = SGP/SGP4

EPOCH          = 2025-12-09T12:00:02.000160
MEAN_MOTION    = 15.44564354
ECCENTRICITY   = .0001118
INCLINATION    = 43.0003
RA_OF_ASC_NODE = 90.0809
ARG_OF_PERICENTER = 277.6243
MEAN_ANOMALY   = 324.1877

EPHEMERIS_TYPE = 0
CLASSIFICATION_TYPE = U
NORAD_CAT_ID   = 66464
ELEMENT_SET_NO = 999
REV_AT_EPOCH   = 511
BSTAR          = -.4886E-1
MEAN_MOTION_DOT = -.2064214E-1
MEAN_MOTION_DDOT = 0

CCSDS_OMM_VERS = 2.0
CREATION_DATE  = 
ORIGINATOR     = 

OBJECT_NAME    = STARLINK-35448
OBJECT_ID      = 2025-262K
CENTER_NAME    = EARTH
REF_FRAME      = TEME
TIME_SYSTEM    = UTC
MEAN_ELEMENT_THEORY = SGP/SGP4

EPOCH          = 2025-12-09T10:52:53.594112
MEAN_MOTION    = 15.49371995
ECCENTRICITY   = .0001467
INCLINATION    = 43.0002
RA_OF_ASC_NODE = 90.3041
ARG_OF_PERICENTER = 252.1747
MEAN_ANOMALY   = 107.8953

EPHEMERIS_TYPE = 0
CLASSIFICATION_TYPE = U
NORAD_CAT_ID   = 66465
ELEMENT_SET_NO = 999
REV_AT_EPOCH   = 505
BSTAR          = -.65675E-2
MEAN_MOTION_DOT = -.353265E-2
MEAN_MOTION_DDOT = 0

CCSDS_OMM_VERS = 2.0
CREATION_DATE  = 
ORIGINATOR     = 

OBJECT_NAME    = STARLINK-35388
OBJECT_ID      = 2025-262L
CENTER_NAME    = EARTH
REF_FRAME      = TEME
TIME_SYSTEM    = UTC
MEAN_ELEMENT_THEORY = SGP/SGP4

EPOCH          = 2025-12-09T10:52:04.094688
MEAN_MOTION    = 15.50487922
ECCENTRICITY   = .0001412
INCLINATION    = 42.9996
RA_OF_ASC_NODE = 90.2991
ARG_OF_PERICENTER = 244.8789
MEAN_ANOMALY   = 115.1925

EPHEMERIS_TYPE = 0
CLASSIFICATION_TYPE = U
NORAD_CAT_ID   = 66466
ELEMENT_SET_NO = 999
REV_AT_EPOCH   = 505
BSTAR          = -.39677E-3
MEAN_MOTION_DOT = -.23472E-3
MEAN_MOTION_DDOT = 0

